OBJECT_NAME,OBJECT_ID,EPOCH,MEAN_MOTION,ECCENTRICITY,INCLINATION,RA_OF_ASC_NODE,ARG_OF_PERICENTER,MEAN_ANOMALY,EPHEMERIS_TYPE,CLASSIFICATION_TYPE,NORAD_CAT_ID,ELEMENT_SET_NO,REV_AT_EPOCH,BSTAR,MEAN_MOTION_DOT,MEAN_MOTION_DDOT
STARLINK-30870,2023-177U,2026-05-14T14:18:10.254528,15.27589200,.00011273,43.0005,338.6777,268.7483,91.3240,0,U,58369,999,13830,.29150508E-4,.54E-5,0
STARLINK-30888,2023-177V,2026-05-14T21:07:53.961024,15.27576762,.00011237,43.0048,336.5098,263.1760,96.8964,0,U,58370,999,13836,.75624987E-4,.1819E-4,0
STARLINK-30859,2023-177W,2026-05-14T22:18:11.608128,15.27582831,.00011947,43.0031,336.8485,275.4623,84.6093,0,U,58371,999,13836,.60871598E-4,.1413E-4,0
STARLINK-30884,2023-177X,2026-05-14T20:45:53.660160,15.27583455,.00011355,43.0027,337.2561,274.9644,85.1078,0,U,58372,999,13834,.42435282E-4,.906E-5,0
STARLINK-30852,2023-177Y,2026-05-14T21:17:11.196960,15.27554868,.00008539,43.0062,336.5324,276.1299,83.9455,0,U,58373,999,13835,-.21906688E-4,-.864E-5,0
STARLINK-30911,2023-178A,2026-05-14T11:24:02.929824,15.34395201,.00012156,53.1620,54.7825,81.9978,278.1163,0,U,58374,999,13996,.35919354E-4,.837E-5,0
STARLINK-30894,2023-178B,2026-05-15T00:48:57.559392,15.34391906,.00014214,53.1624,52.5869,82.6939,277.4225,0,U,58375,999,13998,.50288778E-4,.1323E-4,0
STARLINK-30910,2023-178C,2026-05-15T04:53:59.768736,15.34386326,.00011223,53.1618,51.5188,109.2298,250.8826,0,U,58376,999,14008,-.13771314E-4,-.841E-5,0
STARLINK-30914,2023-178D,2026-05-15T04:41:52.194336,15.34387178,.00010525,53.1616,51.4526,92.4009,267.7114,0,U,58377,999,14008,.16992557E-4,.198E-5,0
STARLINK-30920,2023-178E,2026-05-15T03:30:36.036288,15.30194337,.00011529,53.1604,39.8186,74.0084,286.1044,0,U,58378,999,14024,.21480799E-4,.277E-5,0
STARLINK-30882,2023-178F,2026-05-15T03:47:27.640320,15.34387267,.00014692,53.1623,51.9373,92.2959,267.8212,0,U,58379,999,14007,-.13350867E-4,-.827E-5,0
STARLINK-30915,2023-178G,2026-05-14T12:14:00.998592,15.30187276,.00011581,53.1611,325.6119,94.6489,265.4644,0,U,58380,999,14119,.23161736E-4,.327E-5,0
STARLINK-30923,2023-178H,2026-05-15T04:22:10.962912,15.32849837,.00018263,53.1605,52.0417,106.4571,253.6632,0,U,58381,999,14000,.2697925E-3,.8319E-4,0
STARLINK-30927,2023-178J,2026-05-15T03:59:34.801728,15.34387287,.00012483,53.1616,51.9888,91.2772,268.8374,0,U,58382,999,14005,.14462648E-4,.112E-5,0
STARLINK-30921,2023-178K,2026-05-15T03:38:22.735392,15.34381738,.0001267,53.1612,51.8978,93.8299,266.2848,0,U,58383,999,14005,-.30185E-5,-.478E-5,0
STARLINK-30825,2023-178L,2026-05-15T04:44:54.009312,15.34386666,.00014737,53.1618,51.4459,86.4434,273.6737,0,U,58384,999,14008,.18359159E-4,.244E-5,0
STARLINK-30930,2023-178M,2026-05-15T04:17:37.901760,15.34377962,.00013139,53.1624,51.3613,85.0930,275.0223,0,U,58385,999,13995,-.19210301E-4,-.1025E-4,0
STARLINK-30929,2023-178N,2026-05-15T04:26:50.405568,15.34363439,.00014604,53.1621,51.8971,136.9231,223.1887,0,U,58386,999,14005,.26115739E-4,.505E-5,0
STARLINK-30898,2023-178P,2026-05-15T04:14:42.853632,15.34387208,.00007025,53.1615,51.9274,76.7304,283.3777,0,U,58387,999,14007,.79517202E-4,.2311E-4,0
STARLINK-30913,2023-178Q,2026-05-15T03:53:31.534656,15.34391471,.00013533,53.1619,51.9617,98.6304,261.4852,0,U,58388,999,14007,-.24911688E-4,-.1218E-4,0
STARLINK-30938,2023-178R,2026-05-15T03:38:59.450208,15.30186003,.00012826,53.1606,52.6039,96.4613,263.6534,0,U,58389,999,14006,-.18456899E-4,-.905E-5,0
STARLINK-30868,2023-178S,2026-05-15T03:44:26.195136,15.34383902,.00012238,53.1620,51.9239,85.9471,274.1672,0,U,58390,999,14007,.32368479E-4,.717E-5,0
STARLINK-30916,2023-178T,2026-05-15T04:05:37.215168,15.34388130,.0001262,53.1619,51.9135,82.4400,277.6746,0,U,58391,999,14007,.5083778E-5,-.205E-5,0
STARLINK-30939,2023-178V,2026-05-15T03:29:18.055104,15.34353579,.0001522,53.1612,51.8548,84.7553,275.3624,0,U,58393,999,13994,.2192205E-3,.7027E-4,0
STARLINK-30887,2023-178W,2026-05-15T04:20:45.486528,15.34387811,.0001089,53.1618,51.9072,82.9145,277.1982,0,U,58394,999,14005,.1496585E-5,-.326E-5,0
STARLINK-30934,2023-178X,2026-05-15T03:50:30.692544,15.34382725,.0001442,53.1625,52.0242,88.7599,271.3569,0,U,58395,999,14000,.10506167E-4,-.22E-6,0
MALLIGYONG-1,2023-179A,2026-05-15T07:23:54.026880,15.22440874,.00096027,97.3060,17.7813,135.4579,224.7431,0,U,58400,999,13775,.81017029E-4,.1807E-4,0
STARLINK-30964,2023-180A,2026-05-14T23:22:44.581440,15.27576330,.00014444,43.0069,38.1806,257.3043,102.7648,0,U,58402,999,13776,-.20094556E-4,-.815E-5,0
STARLINK-30844,2023-180B,2026-05-15T03:06:10.963584,15.27596421,.00016416,43.0039,37.6340,267.6971,92.3693,0,U,58403,999,13766,.11577424E-3,.2926E-4,0
STARLINK-30876,2023-180C,2026-05-15T03:00:40.140576,15.27576642,.00018994,43.0061,37.6064,280.5429,79.5209,0,U,58404,999,13778,.10145716E-4,.17E-6,0
STARLINK-30952,2023-180D,2026-05-14T23:37:33.291840,15.27565195,.00014932,43.0065,38.2641,271.7573,88.3107,0,U,58405,999,13765,-.4201763E-4,-.1418E-4,0
STARLINK-30925,2023-180E,2026-05-15T02:49:33.114432,15.27572184,.00014311,43.0033,37.5464,263.8305,96.2383,0,U,58406,999,13766,-.83496426E-4,-.2558E-4,0
STARLINK-30954,2023-180F,2026-05-14T23:13:29.540928,15.27575846,.00007924,43.0061,38.1383,264.9807,95.0955,0,U,58407,999,13776,.8911831E-5,-.17E-6,0
STARLINK-30906,2023-180G,2026-05-15T03:27:39.998016,15.27577166,.00014495,43.0048,40.9808,269.6009,90.4677,0,U,58408,999,13763,.86115822E-4,.2108E-4,0
STARLINK-30940,2023-180H,2026-05-14T17:50:46.995936,15.27581912,.000132,43.0017,254.4289,275.6903,84.3798,0,U,58409,999,13943,.17576095E-4,.222E-5,0
STARLINK-30933,2023-180J,2026-05-14T14:58:54.172704,15.27580939,.0001387,43.0052,254.3856,270.1304,89.9389,0,U,58410,999,13942,.36247486E-4,.735E-5,0
STARLINK-30919,2023-180K,2026-05-14T21:09:42.855264,15.27579512,.00013115,43.0033,38.2776,272.0170,88.0531,0,U,58411,999,13765,.56117251E-4,.1282E-4,0
STARLINK-30924,2023-180L,2026-05-14T15:39:20.986272,15.40204802,.00092227,42.9993,247.6710,351.8562,8.2144,0,U,58412,999,13950,.32175992E-3,.12957E-3,0
STARLINK-30931,2023-180M,2026-05-14T23:13:32.596896,15.27579463,.00017629,43.0034,26.9909,259.2315,100.8338,0,U,58413,999,13789,.41409008E-4,.877E-5,0
STARLINK-30922,2023-180N,2026-05-15T02:55:07.072032,15.27568602,.00014521,43.0060,37.5584,258.3273,101.7416,0,U,58414,999,13778,-.85454301E-4,-.2612E-4,0
STARLINK-30949,2023-180P,2026-05-14T21:57:49.873248,15.27577313,.00011522,43.0058,38.5737,254.5178,105.5547,0,U,58415,999,13775,.40530023E-4,.853E-5,0
STARLINK-30967,2023-180Q,2026-05-15T02:34:45.300864,15.27575810,.00014336,43.0072,37.4536,263.4549,96.6140,0,U,58416,999,13778,.49159041E-4,.1091E-4,0
STARLINK-30955,2023-180R,2026-05-15T01:48:29.486592,15.27583277,.00011691,43.0029,37.2132,260.8515,99.2204,0,U,58417,999,13778,.29166179E-4,.541E-5,0
STARLINK-30895,2023-180S,2026-05-14T18:34:44.655744,15.27564492,.00012585,42.9988,39.2578,233.2311,126.8426,0,U,58418,999,13762,-.10236071E-3,-.3076E-4,0
STARLINK-30917,2023-180T,2026-05-14T17:01:46.491168,15.27576827,.00015236,43.0015,290.9128,255.3702,104.6981,0,U,58419,999,13899,.42560479E-4,.909E-5,0
STARLINK-30899,2023-180U,2026-05-15T03:33:45.579744,15.27573548,.00011749,43.0044,36.9103,263.7660,96.3058,0,U,58420,999,13767,.57737702E-4,.1327E-4,0
STARLINK-30902,2023-180V,2026-05-15T04:03:29.191968,15.27488014,.00017304,43.0068,37.0609,318.8119,41.2602,0,U,58421,999,13768,-.41750136E-3,-.11701E-3,0
STARLINK-30912,2023-180W,2026-05-14T09:01:54.313248,15.27592057,.00013401,43.0009,259.3325,265.7774,94.2924,0,U,58422,999,13934,-.4372029E-5,-.382E-5,0
STARLINK-30900,2023-180X,2026-05-15T02:19:56.479008,15.27578339,.00013619,43.0047,37.3322,269.7606,90.3090,0,U,58423,999,13767,.98469881E-4,.2448E-4,0
STARLINK-30908,2023-180Y,2026-05-14T23:15:21.396096,15.27556624,.0000837,43.0042,38.0499,247.5359,112.5404,0,U,58424,999,13776,-.30283571E-4,-.1094E-4,0
CHUANGXIN 20A (CX-20A),2023-181A,2026-05-15T06:45:08.028288,13.41494459,.00128871,49.9584,87.3840,168.1991,191.9191,0,U,58425,999,12133,.47345541E-4,-.102E-5,0
CHUANGXIN 20B (CX-20B),2023-181B,2026-05-15T06:56:22.981632,13.41487576,.00109145,49.9582,87.4129,171.9853,188.1200,0,U,58426,999,12132,.24562378E-4,-.114E-5,0
CHUANGXIN 20C (CX-20C),2023-181C,2026-05-15T06:52:16.576608,13.41481568,.00110709,49.9587,87.3990,159.1960,200.9369,0,U,58427,999,12133,.41331273E-4,-.105E-5,0
COSMOS 2572,2023-182A,2026-05-14T21:26:01.133952,15.90069648,.0012195,96.6826,239.4995,188.9671,171.1388,0,U,58435,999,14316,.6195798E-5,.1267E-4,.1877947E-5
STARLINK-30869,2023-183A,2026-05-15T02:58:52.869792,15.27573657,.00016562,43.0064,26.5237,267.2903,92.7759,0,U,58437,999,13689,.97035306E-4,.2408E-4,0
STARLINK-30969,2023-183B,2026-05-13T22:38:31.060320,15.27577139,.00010495,42.9976,33.1415,251.2720,108.8017,0,U,58438,999,13671,.26122715E-3,.6933E-4,0
STARLINK-30951,2023-183C,2026-05-14T23:56:07.099296,15.27578338,.00013111,43.0037,27.2853,289.4321,70.6389,0,U,58439,999,13687,.60769287E-4,.141E-4,0
STARLINK-30950,2023-183D,2026-05-15T04:34:59.936736,15.27574073,.00010826,43.0010,189.5647,277.2013,82.8715,0,U,58440,999,13920,.3014504E-4,.567E-5,0
STARLINK-30942,2023-183E,2026-05-15T02:03:22.783968,15.27567163,.00016325,43.0052,26.2328,257.4644,102.6025,0,U,58441,999,13689,-.86383191E-4,-.2638E-4,0
STARLINK-30959,2023-183F,2026-05-15T02:18:10.006560,15.27583938,.00014181,43.0060,26.3079,271.0720,88.9969,0,U,58442,999,13689,.81449505E-4,.198E-4,0
STARLINK-30971,2023-183G,2026-05-15T01:56:10.840128,15.27572208,.00012234,43.0056,27.0459,262.4796,97.5917,0,U,58443,999,13688,.38231912E-4,.79E-5,0
STARLINK-30963,2023-183H,2026-05-14T18:32:56.613408,15.27580628,.0001346,43.0022,28.1777,268.4125,91.6573,0,U,58444,999,13684,.74211577E-4,.1781E-4,0
STARLINK-30961,2023-183J,2026-05-14T23:20:57.666624,15.27594699,.0001438,43.0039,27.0994,272.6573,87.4114,0,U,58445,999,13687,.78729669E-4,.1906E-4,0
STARLINK-30975,2023-183K,2026-05-14T23:19:07.099680,15.27566976,.00013092,43.0030,27.0821,258.2204,101.8501,0,U,58446,999,13689,-.32938675E-4,-.1168E-4,0
